{
  "type": "FeatureCollection",
  "features": [
    {
      "type": "Feature",
      "properties": {
        "norad_id": 31177,
        "name": "FENGYUN 1C DEB",
        "group": "fengyun-1c-debris",
        "lat": -36.422302036066085,
        "lon": -92.42654469670067,
        "alt_km": 808.172474029202,
        "timestamp": "2025-12-13T16:48:32.991086+00:00",
        "meta_object_name": "FENGYUN 1C DEB",
        "meta_object_id": "1999-025BJF",
        "meta_epoch": "2025-12-08T17:24:07.966080",
        "meta_mean_motion": 13.622528,
        "meta_eccentricity": 0.0310599,
        "meta_inclination": 98.7576,
        "meta_ra_of_asc_node": 256.5653,
        "meta_arg_of_pericenter": 324.298,
        "meta_mean_anomaly": 91.0785,
        "meta_ephemeris_type": 0,
        "meta_classification_type": "U",
        "meta_norad_cat_id": 31177,
        "meta_element_set_no": 999,
        "meta_rev_at_epoch": 66157,
        "meta_bstar": 0.0076571,
        "meta_mean_motion_dot": 8.152e-05,
        "meta_mean_motion_ddot": 0,
        "tle_line1": "1 31177U 99025BJF 25342.72509220  .00008152  00000+0  76571-2 0  9990",
        "tle_line2": "2 31177  98.7576 256.5653 0310599 324.2980  91.0785 13.62252800661574"
      },
      "geometry": {
        "type": "Point",
        "coordinates": [
          -92.42654469670067,
          -36.422302036066085
        ]
      }
    },
    {
      "type": "Feature",
      "properties": {
        "norad_id": 31178,
        "name": "FENGYUN 1C DEB",
        "group": "fengyun-1c-debris",
        "lat": -61.050342805931145,
        "lon": 152.36443810199134,
        "alt_km": 793.5149847308221,
        "timestamp": "2025-12-13T16:48:32.991096+00:00",
        "meta_object_name": "FENGYUN 1C DEB",
        "meta_object_id": "1999-025BJG",
        "meta_epoch": "2025-12-12T19:24:00.562176",
        "meta_mean_motion": 14.22209578,
        "meta_eccentricity": 0.0126012,
        "meta_inclination": 99.5138,
        "meta_ra_of_asc_node": 349.0501,
        "meta_arg_of_pericenter": 315.3865,
        "meta_mean_anomaly": 43.7222,
        "meta_ephemeris_type": 0,
        "meta_classification_type": "U",
        "meta_norad_cat_id": 31178,
        "meta_element_set_no": 999,
        "meta_rev_at_epoch": 95816,
        "meta_bstar": 0.0030368224,
        "meta_mean_motion_dot": 7.261e-05,
        "meta_mean_motion_ddot": 0,
        "tle_line1": "1 31178U 99025BJG 25346.80833984  .00007261  00000+0  30368-2 0  9995",
        "tle_line2": "2 31178  99.5138 349.0501 0126012 315.3865  43.7222 14.22209578958161"
      },
      "geometry": {
        "type": "Point",
        "coordinates": [
          152.36443810199134,
          -61.050342805931145
        ]
      }
    },
    {
      "type": "Feature",
      "properties": {
        "norad_id": 31179,
        "name": "FENGYUN 1C DEB",
        "group": "fengyun-1c-debris",
        "lat": -11.55917126866508,
        "lon": 9.461903998534192,
        "alt_km": 770.9425978461813,
        "timestamp": "2025-12-13T16:48:32.991106+00:00",
        "meta_object_name": "FENGYUN 1C DEB",
        "meta_object_id": "1999-025BJH",
        "meta_epoch": "2025-12-12T18:26:10.438368",
        "meta_mean_motion": 13.91924415,
        "meta_eccentricity": 0.02155249,
        "meta_inclination": 99.02,
        "meta_ra_of_asc_node": 6.6928,
        "meta_arg_of_pericenter": 0.697,
        "meta_mean_anomaly": 359.4451,
        "meta_ephemeris_type": 0,
        "meta_classification_type": "U",
        "meta_norad_cat_id": 31179,
        "meta_element_set_no": 999,
        "meta_rev_at_epoch": 61941,
        "meta_bstar": 0.0016054364,
        "meta_mean_motion_dot": 2.431e-05,
        "meta_mean_motion_ddot": 0,
        "tle_line1": "1 31179U 99025BJH 25346.76817637  .00002431  00000+0  16054-2 0  9998",
        "tle_line2": "2 31179  99.0200   6.6928 0215524   0.6970 359.4451 13.91924415619416"
      },
      "geometry": {
        "type": "Point",
        "coordinates": [
          9.461903998534192,
          -11.55917126866508
        ]
      }
    },
    {
      "type": "Feature",
      "properties": {
        "norad_id": 31180,
        "name": "FENGYUN 1C DEB",
        "group": "fengyun-1c-debris",
        "lat": 19.63455195186416,
        "lon": 115.88257514724721,
        "alt_km": 700.0966367878646,
        "timestamp": "2025-12-13T16:48:32.991116+00:00",
        "meta_object_name": "FENGYUN 1C DEB",
        "meta_object_id": "1999-025BJJ",
        "meta_epoch": "2025-12-11T05:40:55.282080",
        "meta_mean_motion": 13.70340375,
        "meta_eccentricity": 0.049829,
        "meta_inclination": 99.2175,
        "meta_ra_of_asc_node": 116.8316,
        "meta_arg_of_pericenter": 63.9597,
        "meta_mean_anomaly": 52.2267,
        "meta_ephemeris_type": 0,
        "meta_classification_type": "U",
        "meta_norad_cat_id": 31180,
        "meta_element_set_no": 999,
        "meta_rev_at_epoch": 64046,
        "meta_bstar": 0.00029125687,
        "meta_mean_motion_dot": 5.8e-06,
        "meta_mean_motion_ddot": 0,
        "tle_line1": "1 31180U 99025BJJ 25345.23675095  .00000580  00000+0  29126-3 0  9999",
        "tle_line2": "2 31180  99.2175 116.8316 0498290  63.9597  52.2267 13.70340375640462"
      },
      "geometry": {
        "type": "Point",
        "coordinates": [
          115.88257514724721,
          19.63455195186416
        ]
      }
    },
    {
      "type": "Feature",
      "properties": {
        "norad_id": 31181,
        "name": "FENGYUN 1C DEB",
        "group": "fengyun-1c-debris",
        "lat": 53.7057480876585,
        "lon": 8.088310334350284,
        "alt_km": 814.4080251277146,
        "timestamp": "2025-12-13T16:48:32.991126+00:00",
        "meta_object_name": "FENGYUN 1C DEB",
        "meta_object_id": "1999-025BJK",
        "meta_epoch": "2025-12-06T13:29:50.146080",
        "meta_mean_motion": 14.11856129,
        "meta_eccentricity": 0.00481542,
        "meta_inclination": 98.7747,
        "meta_ra_of_asc_node": 13.2463,
        "meta_arg_of_pericenter": 91.6254,
        "meta_mean_anomaly": 62.7516,
        "meta_ephemeris_type": 0,
        "meta_classification_type": "U",
        "meta_norad_cat_id": 31181,
        "meta_element_set_no": 999,
        "meta_rev_at_epoch": 95680,
        "meta_bstar": 0.0016824405,
        "meta_mean_motion_dot": 3.063e-05,
        "meta_mean_motion_ddot": 0,
        "tle_line1": "1 31181U 99025BJK 25340.56238595  .00003063  00000+0  16824-2 0  9990",
        "tle_line2": "2 31181  98.7747  13.2463 0048154  91.6254  62.7516 14.11856129956809"
      },
      "geometry": {
        "type": "Point",
        "coordinates": [
          8.088310334350284,
          53.7057480876585
        ]
      }
    },
    {
      "type": "Feature",
      "properties": {
        "norad_id": 31182,
        "name": "FENGYUN 1C DEB",
        "group": "fengyun-1c-debris",
        "lat": -36.33280207236502,
        "lon": 150.09646833523382,
        "alt_km": 848.0516438043205,
        "timestamp": "2025-12-13T16:48:32.991136+00:00",
        "meta_object_name": "FENGYUN 1C DEB",
        "meta_object_id": "1999-025BJL",
        "meta_epoch": "2025-12-09T05:08:12.053760",
        "meta_mean_motion": 14.14545929,
        "meta_eccentricity": 0.0023077,
        "meta_inclination": 98.6814,
        "meta_ra_of_asc_node": 332.187,
        "meta_arg_of_pericenter": 146.444,
        "meta_mean_anomaly": 276.6011,
        "meta_ephemeris_type": 0,
        "meta_classification_type": "U",
        "meta_norad_cat_id": 31182,
        "meta_element_set_no": 999,
        "meta_rev_at_epoch": 96031,
        "meta_bstar": 0.00059768,
        "meta_mean_motion_dot": 1.107e-05,
        "meta_mean_motion_ddot": 0,
        "tle_line1": "1 31182U 99025BJL 25343.21402840  .00001107  00000+0  59768-3 0  9994",
        "tle_line2": "2 31182  98.6814 332.1870 0023077 146.4440 276.6011 14.14545929960315"
      },
      "geometry": {
        "type": "Point",
        "coordinates": [
          150.09646833523382,
          -36.33280207236502
        ]
      }
    },
    {
      "type": "Feature",
      "properties": {
        "norad_id": 31183,
        "name": "FENGYUN 1C DEB",
        "group": "fengyun-1c-debris",
        "lat": -70.35572911086277,
        "lon": 125.0333932891846,
        "alt_km": 759.9529865111845,
        "timestamp": "2025-12-13T16:48:32.991146+00:00",
        "meta_object_name": "FENGYUN 1C DEB",
        "meta_object_id": "1999-025BJM",
        "meta_epoch": "2025-12-12T05:11:08.156832",
        "meta_mean_motion": 14.50428357,
        "meta_eccentricity": 0.00474882,
        "meta_inclination": 99.0365,
        "meta_ra_of_asc_node": 329.9181,
        "meta_arg_of_pericenter": 108.9889,
        "meta_mean_anomaly": 317.1431,
        "meta_ephemeris_type": 0,
        "meta_classification_type": "U",
        "meta_norad_cat_id": 31183,
        "meta_element_set_no": 999,
        "meta_rev_at_epoch": 97475,
        "meta_bstar": 0.0019094587,
        "meta_mean_motion_dot": 7.526e-05,
        "meta_mean_motion_ddot": 0,
        "tle_line1": "1 31183U 99025BJM 25346.21606663  .00007526  00000+0  19095-2 0  9996",
        "tle_line2": "2 31183  99.0365 329.9181 0047488 108.9889 317.1431 14.50428357974758"
      },
      "geometry": {
        "type": "Point",
        "coordinates": [
          125.0333932891846,
          -70.35572911086277
        ]
      }
    }
  ]
}